{
  "type": "FeatureCollection",
  "features": [
    {
      "type": "Feature",
      "properties": {
        "norad_id": 37238,
        "name": "INTELSAT 17 (IS-17)",
        "group": "intelsat",
        "lat": -0.04033239742878994,
        "lon": -30.789026639869267,
        "alt_km": 35776.689411493135,
        "timestamp": "2025-12-21T11:31:42.510080+00:00",
        "meta_object_name": "INTELSAT 17 (IS-17)",
        "meta_object_id": "2010-065B",
        "meta_epoch": "2025-12-20T23:48:58.695264",
        "meta_mean_motion": 1.00271515,
        "meta_eccentricity": 0.000282,
        "meta_inclination": 0.0311,
        "meta_ra_of_asc_node": 70.1295,
        "meta_arg_of_pericenter": 221.6381,
        "meta_mean_anomaly": 221.2687,
        "meta_ephemeris_type": 0,
        "meta_classification_type": "U",
        "meta_norad_cat_id": 37238,
        "meta_element_set_no": 999,
        "meta_rev_at_epoch": 5146,
        "meta_bstar": 0,
        "meta_mean_motion_dot": 0,
        "meta_mean_motion_ddot": 0,
        "tle_line1": "1 37238U 10065B   25354.99234601  .00000000  00000+0  00000+0 0  9996",
        "tle_line2": "2 37238   0.0311  70.1295 0002820 221.6381 221.2687  1.00271515 51465"
      },
      "geometry": {
        "type": "Point",
        "coordinates": [
          -30.789026639869267,
          -0.04033239742878994
        ]
      }
    },
    {
      "type": "Feature",
      "properties": {
        "norad_id": 37392,
        "name": "INTELSAT 28 (IS-28)",
        "group": "intelsat",
        "lat": 0.7221642099895286,
        "lon": -128.50321165741292,
        "alt_km": 35774.97466874403,
        "timestamp": "2025-12-21T11:31:42.510093+00:00",
        "meta_object_name": "INTELSAT 28 (IS-28)",
        "meta_object_id": "2011-016A",
        "meta_epoch": "2025-12-21T02:46:31.544832",
        "meta_mean_motion": 1.00269689,
        "meta_eccentricity": 0.0003696,
        "meta_inclination": 1.3449,
        "meta_ra_of_asc_node": 84.9659,
        "meta_arg_of_pericenter": 188.6208,
        "meta_mean_anomaly": 186.285,
        "meta_ephemeris_type": 0,
        "meta_classification_type": "U",
        "meta_norad_cat_id": 37392,
        "meta_element_set_no": 999,
        "meta_rev_at_epoch": 5150,
        "meta_bstar": 0,
        "meta_mean_motion_dot": -2.03e-06,
        "meta_mean_motion_ddot": 0,
        "tle_line1": "1 37392U 11016A   25355.11564288 -.00000203  00000+0  00000+0 0  9992",
        "tle_line2": "2 37392   1.3449  84.9659 0003696 188.6208 186.2850  1.00269689 51507"
      },
      "geometry": {
        "type": "Point",
        "coordinates": [
          -128.50321165741292,
          0.7221642099895286
        ]
      }
    },
    {
      "type": "Feature",
      "properties": {
        "norad_id": 37834,
        "name": "INTELSAT 18 (IS-18)",
        "group": "intelsat",
        "lat": 0.027932528939308508,
        "lon": 83.22858499173888,
        "alt_km": 35792.326175312126,
        "timestamp": "2025-12-21T11:31:42.510106+00:00",
        "meta_object_name": "INTELSAT 18 (IS-18)",
        "meta_object_id": "2011-056A",
        "meta_epoch": "2025-12-21T02:04:13.099008",
        "meta_mean_motion": 1.0027245,
        "meta_eccentricity": 0.0001696,
        "meta_inclination": 0.032,
        "meta_ra_of_asc_node": 281.1495,
        "meta_arg_of_pericenter": 8.0974,
        "meta_mean_anomaly": 11.7196,
        "meta_ephemeris_type": 0,
        "meta_classification_type": "U",
        "meta_norad_cat_id": 37834,
        "meta_element_set_no": 999,
        "meta_rev_at_epoch": 5202,
        "meta_bstar": 0,
        "meta_mean_motion_dot": 7.6e-07,
        "meta_mean_motion_ddot": 0,
        "tle_line1": "1 37834U 11056A   25355.08626272  .00000076  00000+0  00000+0 0  9992",
        "tle_line2": "2 37834   0.0320 281.1495 0001696   8.0974  11.7196  1.00272450 52027"
      },
      "geometry": {
        "type": "Point",
        "coordinates": [
          83.22858499173888,
          0.027932528939308508
        ]
      }
    },
    {
      "type": "Feature",
      "properties": {
        "norad_id": 38098,
        "name": "INTELSAT 22 (IS-22)",
        "group": "intelsat",
        "lat": -0.027814626282707384,
        "lon": -24.6745024442281,
        "alt_km": 35782.38420502208,
        "timestamp": "2025-12-21T11:31:42.510119+00:00",
        "meta_object_name": "INTELSAT 22 (IS-22)",
        "meta_object_id": "2012-011A",
        "meta_epoch": "2025-12-21T03:59:38.774400",
        "meta_mean_motion": 1.002706,
        "meta_eccentricity": 0.0001802,
        "meta_inclination": 0.0158,
        "meta_ra_of_asc_node": 42.157,
        "meta_arg_of_pericenter": 235.089,
        "meta_mean_anomaly": 304.7466,
        "meta_ephemeris_type": 0,
        "meta_classification_type": "U",
        "meta_norad_cat_id": 38098,
        "meta_element_set_no": 999,
        "meta_rev_at_epoch": 540,
        "meta_bstar": 0,
        "meta_mean_motion_dot": -3.5e-07,
        "meta_mean_motion_ddot": 0,
        "tle_line1": "1 38098U 12011A   25355.16642100 -.00000035  00000+0  00000+0 0  9990",
        "tle_line2": "2 38098   0.0158  42.1570 0001802 235.0890 304.7466  1.00270600  5406"
      },
      "geometry": {
        "type": "Point",
        "coordinates": [
          -24.6745024442281,
          -0.027814626282707384
        ]
      }
    },
    {
      "type": "Feature",
      "properties": {
        "norad_id": 38356,
        "name": "INTELSAT 19 (IS-19)",
        "group": "intelsat",
        "lat": 0.032884491771489346,
        "lon": 69.22560207080134,
        "alt_km": 35797.30505268762,
        "timestamp": "2025-12-21T11:31:42.510131+00:00",
        "meta_object_name": "INTELSAT 19 (IS-19)",
        "meta_object_id": "2012-030A",
        "meta_epoch": "2025-12-21T01:51:38.617056",
        "meta_mean_motion": 1.00271299,
        "meta_eccentricity": 0.0002742,
        "meta_inclination": 0.0109,
        "meta_ra_of_asc_node": 13.4708,
        "meta_arg_of_pericenter": 253.0268,
        "meta_mean_anomaly": 17.3144,
        "meta_ephemeris_type": 0,
        "meta_classification_type": "U",
        "meta_norad_cat_id": 38356,
        "meta_element_set_no": 999,
        "meta_rev_at_epoch": 4866,
        "meta_bstar": 0,
        "meta_mean_motion_dot": -3.3e-07,
        "meta_mean_motion_ddot": 0,
        "tle_line1": "1 38356U 12030A   25355.07753029 -.00000033  00000+0  00000+0 0  9999",
        "tle_line2": "2 38356   0.0109  13.4708 0002742 253.0268  17.3144  1.00271299 48666"
      },
      "geometry": {
        "type": "Point",
        "coordinates": [
          69.22560207080134,
          0.032884491771489346
        ]
      }
    },
    {
      "type": "Feature",
      "properties": {
        "norad_id": 38740,
        "name": "INTELSAT 20 (IS-20)",
        "group": "intelsat",
        "lat": -0.011116651048022489,
        "lon": -28.275929984922183,
        "alt_km": 35798.50349589754,
        "timestamp": "2025-12-21T11:31:42.510144+00:00",
        "meta_object_name": "INTELSAT 20 (IS-20)",
        "meta_object_id": "2012-043A",
        "meta_epoch": "2025-12-20T23:49:43.623264",
        "meta_mean_motion": 1.00270891,
        "meta_eccentricity": 0.0003365,
        "meta_inclination": 0.0096,
        "meta_ra_of_asc_node": 84.7488,
        "meta_arg_of_pericenter": 97.2363,
        "meta_mean_anomaly": 333.7536,
        "meta_ephemeris_type": 0,
        "meta_classification_type": "U",
        "meta_norad_cat_id": 38740,
        "meta_element_set_no": 999,
        "meta_rev_at_epoch": 4896,
        "meta_bstar": 0,
        "meta_mean_motion_dot": -1e-08,
        "meta_mean_motion_ddot": 0,
        "tle_line1": "1 38740U 12043A   25354.99286601 -.00000001  00000+0  00000+0 0  9992",
        "tle_line2": "2 38740   0.0096  84.7488 0003365  97.2363 333.7536  1.00270891 48960"
      },
      "geometry": {
        "type": "Point",
        "coordinates": [
          -28.275929984922183,
          -0.011116651048022489
        ]
      }
    },
    {
      "type": "Feature",
      "properties": {
        "norad_id": 38749,
        "name": "INTELSAT 21 (IS-21)",
        "group": "intelsat",
        "lat": -0.028651389198066732,
        "lon": -154.79448111480968,
        "alt_km": 35782.451100873644,
        "timestamp": "2025-12-21T11:31:42.510156+00:00",
        "meta_object_name": "INTELSAT 21 (IS-21)",
        "meta_object_id": "2012-045A",
        "meta_epoch": "2025-12-21T02:39:02.263104",
        "meta_mean_motion": 1.00272127,
        "meta_eccentricity": 0.0001509,
        "meta_inclination": 0.0238,
        "meta_ra_of_asc_node": 290.5634,
        "meta_arg_of_pericenter": 330.4736,
        "meta_mean_anomaly": 170.6587,
        "meta_ephemeris_type": 0,
        "meta_classification_type": "U",
        "meta_norad_cat_id": 38749,
        "meta_element_set_no": 999,
        "meta_rev_at_epoch": 4873,
        "meta_bstar": 0,
        "meta_mean_motion_dot": -2.62e-06,
        "meta_mean_motion_ddot": 0,
        "tle_line1": "1 38749U 12045A   25355.11044286 -.00000262  00000+0  00000+0 0  9998",
        "tle_line2": "2 38749   0.0238 290.5634 0001509 330.4736 170.6587  1.00272127 48734"
      },
      "geometry": {
        "type": "Point",
        "coordinates": [
          -154.79448111480968,
          -0.028651389198066732
        ]
      }
    }
  ]
}